ONEWEB-0278             
1 48996U 21060AF  25274.26820461  .00000108  00000+0  24832-3 0  9994
2 48996  87.8973 280.3652 0002130  93.0730 267.0644 13.16593196205622
ONEWEB-0279             
1 48997U 21060AG  25274.27611635  .00000046  00000+0  87654-4 0  9990
2 48997  87.8971 280.3588 0001552  93.4288 266.7020 13.16594100205550
ONEWEB-0280             
1 48998U 21060AH  25274.29117116  .00000101  00000+0  22946-3 0  9992
2 48998  87.8968 280.3639 0001932 101.7752 258.3595 13.16594629205498
ONEWEB-0281             
1 48999U 21060AJ  25274.29671409  .00000150  00000+0  35983-3 0  9992
2 48999  87.8969 280.3596 0001843  86.6424 273.4918 13.16594766205567
ONEWEB-0282             
1 49000U 21060AK  25274.09878633 -.00000125  00000+0 -35937-3 0  9995
2 49000  87.8973 280.4094 0001759  95.1983 264.9349 13.16593776205519
ONEWEB-0283             
1 49001U 21060AL  25274.08770415  .00000081  00000+0  17749-3 0  9994
2 49001  87.8968 280.4133 0001699  92.7174 267.4151 13.16592878205528
ONEWEB-0284             
1 49002U 21060AM  25274.08136023 -.00000338  00000+0 -91738-3 0  9993
2 49002  87.8979 280.3975 0002154  98.8344 261.3031 13.16595247205508
ONEWEB-0285             
1 49075U 21075A   25274.08265093 -.00000584  00000+0 -16586-2 0  9999
2 49075  87.8935  42.1311 0001710 100.6703 259.4618 13.12442971201221
ONEWEB-0286             
1 49076U 21075B   25274.29324449 -.00000068  00000+0 -22486-3 0  9998
2 49076  87.8941  42.1247 0001760  93.6969 266.4361 13.12442210200607
ONEWEB-0287             
1 49077U 21075C   25273.46495487 -.00000012  00000+0 -65018-4 0  9996
2 49077  87.9079  57.5156 0001899  87.5483 272.5866 13.17649994199424
ONEWEB-0288             
1 49078U 21075D   25274.26906637  .00000536  00000+0  14543-2 0  9994
2 49078  87.8935  42.0891 0001847  99.7565 260.3772 13.12442173201227
ONEWEB-0289             
1 49079U 21075E   25274.11111080 -.00000040  00000+0 -13614-3 0  9990
2 49079  87.9070  57.4098 0001925 106.9334 253.2009 13.17650343200082
ONEWEB-0290             
1 49080U 21075F   25274.16019842  .00000133  00000+0  30881-3 0  9996
2 49080  87.9078  57.3562 0001824 115.7779 244.3541 13.17648779199502
ONEWEB-0291             
1 49081U 21075G   25274.06908055  .00000092  00000+0  20370-3 0  9995
2 49081  87.9079  57.3795 0002070  96.1772 263.9596 13.17648704199483
ONEWEB-0293             
1 49082U 21075H   25273.86657847  .00000064  00000+0  13173-3 0  9995
2 49082  87.9069  57.4473 0001721  99.6187 260.5139 13.17648734199486
ONEWEB-0294             
1 49083U 21075J   25274.12306812  .00000195  00000+0  50676-3 0  9993
2 49083  87.8935  42.1185 0002030 110.1615 249.9732 13.12442168200591
