[{"OBJECT_NAME":"ONEWEB-0278","OBJECT_ID":"2021-060AF","EPOCH":"2025-10-01T06:26:12.878304","MEAN_MOTION":13.16593196,"ECCENTRICITY":0.00021307,"INCLINATION":87.8973,"RA_OF_ASC_NODE":280.3652,"ARG_OF_PERICENTER":93.073,"MEAN_ANOMALY":267.0644,"EPHEMERIS_TYPE":0,"CLASSIFICATION_TYPE":"U","NORAD_CAT_ID":48996,"ELEMENT_SET_NO":999,"REV_AT_EPOCH":20562,"BSTAR":0.00024831963,"MEAN_MOTION_DOT":1.08e-6,"MEAN_MOTION_DDOT":0},{"OBJECT_NAME":"ONEWEB-0279","OBJECT_ID":"2021-060AG","EPOCH":"2025-10-01T06:37:36.452640","MEAN_MOTION":13.165941,"ECCENTRICITY":0.0001552,"INCLINATION":87.8971,"RA_OF_ASC_NODE":280.3588,"ARG_OF_PERICENTER":93.4288,"MEAN_ANOMALY":266.702,"EPHEMERIS_TYPE":0,"CLASSIFICATION_TYPE":"U","NORAD_CAT_ID":48997,"ELEMENT_SET_NO":999,"REV_AT_EPOCH":20555,"BSTAR":8.7653723e-5,"MEAN_MOTION_DOT":4.6e-7,"MEAN_MOTION_DDOT":0},{"OBJECT_NAME":"ONEWEB-0280","OBJECT_ID":"2021-060AH","EPOCH":"2025-10-01T06:59:17.188224","MEAN_MOTION":13.16594629,"ECCENTRICITY":0.00019322,"INCLINATION":87.8968,"RA_OF_ASC_NODE":280.3639,"ARG_OF_PERICENTER":101.7752,"MEAN_ANOMALY":258.3595,"EPHEMERIS_TYPE":0,"CLASSIFICATION_TYPE":"U","NORAD_CAT_ID":48998,"ELEMENT_SET_NO":999,"REV_AT_EPOCH":20549,"BSTAR":0.00022946235,"MEAN_MOTION_DOT":1.01e-6,"MEAN_MOTION_DDOT":0},{"OBJECT_NAME":"ONEWEB-0281","OBJECT_ID":"2021-060AJ","EPOCH":"2025-10-01T07:07:16.097376","MEAN_MOTION":13.16594766,"ECCENTRICITY":0.00018439,"INCLINATION":87.8969,"RA_OF_ASC_NODE":280.3596,"ARG_OF_PERICENTER":86.6424,"MEAN_ANOMALY":273.4918,"EPHEMERIS_TYPE":0,"CLASSIFICATION_TYPE":"U","NORAD_CAT_ID":48999,"ELEMENT_SET_NO":999,"REV_AT_EPOCH":20556,"BSTAR":0.00035983183,"MEAN_MOTION_DOT":1.5e-6,"MEAN_MOTION_DDOT":0},{"OBJECT_NAME":"ONEWEB-0282","OBJECT_ID":"2021-060AK","EPOCH":"2025-10-01T02:22:15.138912","MEAN_MOTION":13.16593776,"ECCENTRICITY":0.00017598,"INCLINATION":87.8973,"RA_OF_ASC_NODE":280.4094,"ARG_OF_PERICENTER":95.1983,"MEAN_ANOMALY":264.9349,"EPHEMERIS_TYPE":0,"CLASSIFICATION_TYPE":"U","NORAD_CAT_ID":49000,"ELEMENT_SET_NO":999,"REV_AT_EPOCH":20551,"BSTAR":-0.00035937287,"MEAN_MOTION_DOT":-1.25e-6,"MEAN_MOTION_DDOT":0},{"OBJECT_NAME":"ONEWEB-0283","OBJECT_ID":"2021-060AL","EPOCH":"2025-10-01T02:06:17.638560","MEAN_MOTION":13.16592878,"ECCENTRICITY":0.00016992,"INCLINATION":87.8968,"RA_OF_ASC_NODE":280.4133,"ARG_OF_PERICENTER":92.7174,"MEAN_ANOMALY":267.4151,"EPHEMERIS_TYPE":0,"CLASSIFICATION_TYPE":"U","NORAD_CAT_ID":49001,"ELEMENT_SET_NO":999,"REV_AT_EPOCH":20552,"BSTAR":0.00017748825,"MEAN_MOTION_DOT":8.1e-7,"MEAN_MOTION_DDOT":0},{"OBJECT_NAME":"ONEWEB-0284","OBJECT_ID":"2021-060AM","EPOCH":"2025-10-01T01:57:09.523872","MEAN_MOTION":13.16595247,"ECCENTRICITY":0.0002154,"INCLINATION":87.8979,"RA_OF_ASC_NODE":280.3975,"ARG_OF_PERICENTER":98.8344,"MEAN_ANOMALY":261.3031,"EPHEMERIS_TYPE":0,"CLASSIFICATION_TYPE":"U","NORAD_CAT_ID":49002,"ELEMENT_SET_NO":999,"REV_AT_EPOCH":20550,"BSTAR":-0.0009173788,"MEAN_MOTION_DOT":-3.38e-6,"MEAN_MOTION_DDOT":0},{"OBJECT_NAME":"ONEWEB-0285","OBJECT_ID":"2021-075A","EPOCH":"2025-10-01T01:59:01.040352","MEAN_MOTION":13.12442971,"ECCENTRICITY":0.00017106,"INCLINATION":87.8935,"RA_OF_ASC_NODE":42.1311,"ARG_OF_PERICENTER":100.6703,"MEAN_ANOMALY":259.4618,"EPHEMERIS_TYPE":0,"CLASSIFICATION_TYPE":"U","NORAD_CAT_ID":49075,"ELEMENT_SET_NO":999,"REV_AT_EPOCH":20122,"BSTAR":-0.0016586472,"MEAN_MOTION_DOT":-5.84e-6,"MEAN_MOTION_DDOT":0},{"OBJECT_NAME":"ONEWEB-0286","OBJECT_ID":"2021-075B","EPOCH":"2025-10-01T07:02:16.323936","MEAN_MOTION":13.1244221,"ECCENTRICITY":0.00017607,"INCLINATION":87.8941,"RA_OF_ASC_NODE":42.1247,"ARG_OF_PERICENTER":93.6969,"MEAN_ANOMALY":266.4361,"EPHEMERIS_TYPE":0,"CLASSIFICATION_TYPE":"U","NORAD_CAT_ID":49076,"ELEMENT_SET_NO":999,"REV_AT_EPOCH":20060,"BSTAR":-0.00022485624,"MEAN_MOTION_DOT":-6.8e-7,"MEAN_MOTION_DDOT":0},{"OBJECT_NAME":"ONEWEB-0287","OBJECT_ID":"2021-075C","EPOCH":"2025-09-30T11:09:32.100768","MEAN_MOTION":13.17649994,"ECCENTRICITY":0.00018993,"INCLINATION":87.9079,"RA_OF_ASC_NODE":57.5156,"ARG_OF_PERICENTER":87.5483,"MEAN_ANOMALY":272.5866,"EPHEMERIS_TYPE":0,"CLASSIFICATION_TYPE":"U","NORAD_CAT_ID":49077,"ELEMENT_SET_NO":999,"REV_AT_EPOCH":19942,"BSTAR":-6.5017859e-5,"MEAN_MOTION_DOT":-1.2e-7,"MEAN_MOTION_DDOT":0},{"OBJECT_NAME":"ONEWEB-0288","OBJECT_ID":"2021-075D","EPOCH":"2025-10-01T06:27:27.334368","MEAN_MOTION":13.12442173,"ECCENTRICITY":0.00018472,"INCLINATION":87.8935,"RA_OF_ASC_NODE":42.0891,"ARG_OF_PERICENTER":99.7565,"MEAN_ANOMALY":260.3772,"EPHEMERIS_TYPE":0,"CLASSIFICATION_TYPE":"U","NORAD_CAT_ID":49078,"ELEMENT_SET_NO":999,"REV_AT_EPOCH":20122,"BSTAR":0.0014542926,"MEAN_MOTION_DOT":5.36e-6,"MEAN_MOTION_DDOT":0},{"OBJECT_NAME":"ONEWEB-0289","OBJECT_ID":"2021-075E","EPOCH":"2025-10-01T02:39:59.973120","MEAN_MOTION":13.17650343,"ECCENTRICITY":0.00019254,"INCLINATION":87.907,"RA_OF_ASC_NODE":57.4098,"ARG_OF_PERICENTER":106.9334,"MEAN_ANOMALY":253.2009,"EPHEMERIS_TYPE":0,"CLASSIFICATION_TYPE":"U","NORAD_CAT_ID":49079,"ELEMENT_SET_NO":999,"REV_AT_EPOCH":20008,"BSTAR":-0.00013613577,"MEAN_MOTION_DOT":-4.0e-7,"MEAN_MOTION_DDOT":0},{"OBJECT_NAME":"ONEWEB-0290","OBJECT_ID":"2021-075F","EPOCH":"2025-10-01T03:50:41.143488","MEAN_MOTION":13.17648779,"ECCENTRICITY":0.00018241,"INCLINATION":87.9078,"RA_OF_ASC_NODE":57.3562,"ARG_OF_PERICENTER":115.7779,"MEAN_ANOMALY":244.3541,"EPHEMERIS_TYPE":0,"CLASSIFICATION_TYPE":"U","NORAD_CAT_ID":49080,"ELEMENT_SET_NO":999,"REV_AT_EPOCH":19950,"BSTAR":0.00030880758,"MEAN_MOTION_DOT":1.33e-6,"MEAN_MOTION_DDOT":0},{"OBJECT_NAME":"ONEWEB-0291","OBJECT_ID":"2021-075G","EPOCH":"2025-10-01T01:39:28.559520","MEAN_MOTION":13.17648704,"ECCENTRICITY":0.00020707,"INCLINATION":87.9079,"RA_OF_ASC_NODE":57.3795,"ARG_OF_PERICENTER":96.1772,"MEAN_ANOMALY":263.9596,"EPHEMERIS_TYPE":0,"CLASSIFICATION_TYPE":"U","NORAD_CAT_ID":49081,"ELEMENT_SET_NO":999,"REV_AT_EPOCH":19948,"BSTAR":0.000203701,"MEAN_MOTION_DOT":9.2e-7,"MEAN_MOTION_DDOT":0},{"OBJECT_NAME":"ONEWEB-0293","OBJECT_ID":"2021-075H","EPOCH":"2025-09-30T20:47:52.379808","MEAN_MOTION":13.17648734,"ECCENTRICITY":0.00017217,"INCLINATION":87.9069,"RA_OF_ASC_NODE":57.4473,"ARG_OF_PERICENTER":99.6187,"MEAN_ANOMALY":260.5139,"EPHEMERIS_TYPE":0,"CLASSIFICATION_TYPE":"U","NORAD_CAT_ID":49082,"ELEMENT_SET_NO":999,"REV_AT_EPOCH":19948,"BSTAR":0.00013172876,"MEAN_MOTION_DOT":6.4e-7,"MEAN_MOTION_DDOT":0},{"OBJECT_NAME":"ONEWEB-0294","OBJECT_ID":"2021-075J","EPOCH":"2025-10-01T02:57:13.085568","MEAN_MOTION":13.12442168,"ECCENTRICITY":0.00020308,"INCLINATION":87.8935,"RA_OF_ASC_NODE":42.1185,"ARG_OF_PERICENTER":110.1615,"MEAN_ANOMALY":249.9732,"EPHEMERIS_TYPE":0,"CLASSIFICATION_TYPE":"U","NORAD_CAT_ID":49083,"ELEMENT_SET_NO":999,"REV_AT_EPOCH":20059,"BSTAR":0.00050675954,"MEAN_MOTION_DOT":1.95e-6,"MEAN_MOTION_DDOT":0}]
